{"type": "FeatureCollection", "features": [ {"type": "Feature", "properties": {"norad_id": 31880, "name": "FENGYUN 1C DEB", "group": "fengyun-1c-debris", "lat": 21.110776696430197, "lon": 143.35052588330475, "alt_km": 997.1071003644001, "timestamp": "2025-12-10T14:53:37.375861+00:00", "meta": {"OBJECT_NAME": "FENGYUN 1C DEB", "OBJECT_ID": "1999-025CKF", "EPOCH": "2025-12-07T17:39:23.204736", "MEAN_MOTION": 13.89389039, "ECCENTRICITY": 0.01282018, "INCLINATION": 100.0287, "RA_OF_ASC_NODE": 144.1639, "ARG_OF_PERICENTER": 164.9392, "MEAN_ANOMALY": 195.5637, "EPHEMERIS_TYPE": 0, "CLASSIFICATION_TYPE": "U", "NORAD_CAT_ID": 31880, "ELEMENT_SET_NO": 999, "REV_AT_EPOCH": 62910, "BSTAR": 0.00081356926, "MEAN_MOTION_DOT": 1.01e-05, "MEAN_MOTION_DDOT": 0}, "tle": {"line1": "1 31880U 99025CKF 25341.73568524  .00001010  00000+0  81357-3 0  9998", "line2": "2 31880 100.0287 144.1639 0128201 164.9392 195.5637 13.89389039629103"}}, "geometry": {"type": "Point", "coordinates": [143.35052588330475, 21.110776696430197]}}, {"type": "Feature", "properties": {"norad_id": 31882, "name": "FENGYUN 1C DEB", "group": "fengyun-1c-debris", "lat": 39.00120760795343, "lon": 94.46194850589274, "alt_km": 846.7286759048029, "timestamp": "2025-12-10T14:53:37.375873+00:00", "meta": {"OBJECT_NAME": "FENGYUN 1C DEB", "OBJECT_ID": "1999-025CKH", "EPOCH": "2025-12-04T12:04:11.131104", "MEAN_MOTION": 14.12940251, "ECCENTRICITY": 0.0035445, "INCLINATION": 98.9162, "RA_OF_ASC_NODE": 261.0675, "ARG_OF_PERICENTER": 248.9848, "MEAN_ANOMALY": 110.7531, "EPHEMERIS_TYPE": 0, "CLASSIFICATION_TYPE": "U", "NORAD_CAT_ID": 31882, "ELEMENT_SET_NO": 999, "REV_AT_EPOCH": 58520, "BSTAR": 0.0011941, "MEAN_MOTION_DOT": 2.193e-05, "MEAN_MOTION_DDOT": 0}, "tle": {"line1": "1 31882U 99025CKH 25338.50290661  .00002193  00000+0  11941-2 0  9999", "line2": "2 31882  98.9162 261.0675 0035445 248.9848 110.7531 14.12940251585207"}}, "geometry": {"type": "Point", "coordinates": [94.46194850589274, 39.00120760795343]}}, {"type": "Feature", "properties": {"norad_id": 31883, "name": "FENGYUN 1C DEB", "group": "fengyun-1c-debris", "lat": 33.29387809869813, "lon": 87.02420222844725, "alt_km": 635.9332186749652, "timestamp": "2025-12-10T14:53:37.375883+00:00", "meta": {"OBJECT_NAME": "FENGYUN 1C DEB", "OBJECT_ID": "1999-025CKJ", "EPOCH": "2025-12-09T16:58:20.816832", "MEAN_MOTION": 14.67696286, "ECCENTRICITY": 0.01251271, "INCLINATION": 99.0273, "RA_OF_ASC_NODE": 260.0251, "ARG_OF_PERICENTER": 78.4321, "MEAN_ANOMALY": 283.0897, "EPHEMERIS_TYPE": 0, "CLASSIFICATION_TYPE": "U", "NORAD_CAT_ID": 31883, "ELEMENT_SET_NO": 999, "REV_AT_EPOCH": 97934, "BSTAR": 0.0010532823, "MEAN_MOTION_DOT": 6.688e-05, "MEAN_MOTION_DDOT": 0}, "tle": {"line1": "1 31883U 99025CKJ 25343.70718538  .00006688  00000+0  10533-2 0  9995", "line2": "2 31883  99.0273 260.0251 0125127  78.4321 283.0897 14.67696286979348"}}, "geometry": {"type": "Point", "coordinates": [87.02420222844725, 33.29387809869813]}}, {"type": "Feature", "properties": {"norad_id": 31887, "name": "FENGYUN 1C DEB", "group": "fengyun-1c-debris", "lat": 0.9665528826345651, "lon": 35.751633831712624, "alt_km": 686.3840314695162, "timestamp": "2025-12-10T14:53:37.375892+00:00", "meta": {"OBJECT_NAME": "FENGYUN 1C DEB", "OBJECT_ID": "1999-025CKN", "EPOCH": "2025-12-09T09:14:16.435680", "MEAN_MOTION": 14.57748959, "ECCENTRICITY": 0.00241735, "INCLINATION": 99.5336, "RA_OF_ASC_NODE": 34.5002, "ARG_OF_PERICENTER": 15.3067, "MEAN_ANOMALY": 344.8853, "EPHEMERIS_TYPE": 0, "CLASSIFICATION_TYPE": "U", "NORAD_CAT_ID": 31887, "ELEMENT_SET_NO": 999, "REV_AT_EPOCH": 96559, "BSTAR": 0.0014139857, "MEAN_MOTION_DOT": 6.433e-05, "MEAN_MOTION_DDOT": 0}, "tle": {"line1": "1 31887U 99025CKN 25343.38491245  .00006433  00000+0  14140-2 0  9992", "line2": "2 31887  99.5336  34.5002 0024173  15.3067 344.8853 14.57748959965595"}}, "geometry": {"type": "Point", "coordinates": [35.751633831712624, 0.9665528826345651]}}, {"type": "Feature", "properties": {"norad_id": 31888, "name": "FENGYUN 1C DEB", "group": "fengyun-1c-debris", "lat": -34.66504931077198, "lon": 84.49961837262566, "alt_km": 772.6295506653405, "timestamp": "2025-12-10T14:53:37.375901+00:00", "meta": {"OBJECT_NAME": "FENGYUN 1C DEB", "OBJECT_ID": "1999-025CKP", "EPOCH": "2025-12-09T12:46:19.286688", "MEAN_MOTION": 14.33869368, "ECCENTRICITY": 0.0017415, "INCLINATION": 99.155, "RA_OF_ASC_NODE": 269.7513, "ARG_OF_PERICENTER": 227.0258, "MEAN_ANOMALY": 132.9465, "EPHEMERIS_TYPE": 0, "CLASSIFICATION_TYPE": "U", "NORAD_CAT_ID": 31888, "ELEMENT_SET_NO": 999, "REV_AT_EPOCH": 95591, "BSTAR": 0.0028784, "MEAN_MOTION_DOT": 7.988e-05, "MEAN_MOTION_DDOT": 0}, "tle": {"line1": "1 31888U 99025CKP 25343.53216767  .00007988  00000+0  28784-2 0  9999", "line2": "2 31888  99.1550 269.7513 0017415 227.0258 132.9465 14.33869368955916"}}, "geometry": {"type": "Point", "coordinates": [84.49961837262566, -34.66504931077198]}}, {"type": "Feature", "properties": {"norad_id": 31890, "name": "FENGYUN 1C DEB", "group": "fengyun-1c-debris", "lat": 75.17174644113712, "lon": -39.21760871419199, "alt_km": 902.8025702469531, "timestamp": "2025-12-10T14:53:37.375910+00:00", "meta": {"OBJECT_NAME": "FENGYUN 1C DEB", "OBJECT_ID": "1999-025CKR", "EPOCH": "2025-12-10T07:42:33.875424", "MEAN_MOTION": 14.10131254, "ECCENTRICITY": 0.0071571, "INCLINATION": 98.7184, "RA_OF_ASC_NODE": 355.9158, "ARG_OF_PERICENTER": 249.1097, "MEAN_ANOMALY": 110.2401, "EPHEMERIS_TYPE": 0, "CLASSIFICATION_TYPE": "U", "NORAD_CAT_ID": 31890, "ELEMENT_SET_NO": 999, "REV_AT_EPOCH": 64118, "BSTAR": 0.00021407286, "MEAN_MOTION_DOT": 3.44e-06, "MEAN_MOTION_DDOT": 0}, "tle": {"line1": "1 31890U 99025CKR 25344.32122541  .00000344  00000+0  21407-3 0  9991", "line2": "2 31890  98.7184 355.9158 0071571 249.1097 110.2401 14.10131254641180"}}, "geometry": {"type": "Point", "coordinates": [-39.21760871419199, 75.17174644113712]}}, {"type": "Feature", "properties": {"norad_id": 31891, "name": "FENGYUN 1C DEB", "group": "fengyun-1c-debris", "lat": -36.385682047815074, "lon": 6.780281206588255, "alt_km": 1133.7159460601924, "timestamp": "2025-12-10T14:53:37.375919+00:00", "meta": {"OBJECT_NAME": "FENGYUN 1C DEB", "OBJECT_ID": "1999-025CKS", "EPOCH": "2025-12-06T00:20:55.229568", "MEAN_MOTION": 13.66193809, "ECCENTRICITY": 0.0224822, "INCLINATION": 99.4024, "RA_OF_ASC_NODE": 355.2939, "ARG_OF_PERICENTER": 200.6432, "MEAN_ANOMALY": 158.5519, "EPHEMERIS_TYPE": 0, "CLASSIFICATION_TYPE": "U", "NORAD_CAT_ID": 31891, "ELEMENT_SET_NO": 999, "REV_AT_EPOCH": 92318, "BSTAR": 0.00081038713, "MEAN_MOTION_DOT": 7.52e-06, "MEAN_MOTION_DDOT": 0}, "tle": {"line1": "1 31891U 99025CKS 25340.01452812  .00000752  00000+0  81039-3 0  9991", "line2": "2 31891  99.4024 355.2939 0224822 200.6432 158.5519 13.66193809923188"}}, "geometry": {"type": "Point", "coordinates": [6.780281206588255, -36.385682047815074]}}, {"type": "Feature", "properties": {"norad_id": 31892, "name": "FENGYUN 1C DEB", "group": "fengyun-1c-debris", "lat": 53.53923729876829, "lon": 141.40423583554795, "alt_km": 821.782282322526, "timestamp": "2025-12-10T14:53:37.375946+00:00", "meta": {"OBJECT_NAME": "FENGYUN 1C DEB", "OBJECT_ID": "1999-025CKT", "EPOCH": "2025-12-06T17:19:53.766912", "MEAN_MOTION": 14.41156255, "ECCENTRICITY": 0.01986119, "INCLINATION": 99.2881, "RA_OF_ASC_NODE": 149.9643, "ARG_OF_PERICENTER": 304.4066, "MEAN_ANOMALY": 53.8482, "EPHEMERIS_TYPE": 0, "CLASSIFICATION_TYPE": "U", "NORAD_CAT_ID": 31892, "ELEMENT_SET_NO": 999, "REV_AT_EPOCH": 64819, "BSTAR": 0.001005312, "MEAN_MOTION_DOT": 4.04e-05, "MEAN_MOTION_DDOT": 0}, "tle": {"line1": "1 31892U 99025CKT 25340.72215008  .00004040  00000+0  10053-2 0  9995", "line2": "2 31892  99.2881 149.9643 0198611 304.4066  53.8482 14.41156255648199"}}, "geometry": {"type": "Point", "coordinates": [141.40423583554795, 53.53923729876829]}}, {"type": "Feature", "properties": {"norad_id": 31893, "name": "FENGYUN 1C DEB", "group": "fengyun-1c-debris", "lat": -66.67308576389124, "lon": 100.94149765296423, "alt_km": 675.1570441908225, "timestamp": "2025-12-10T14:53:37.375965+00:00", "meta": {"OBJECT_NAME": "FENGYUN 1C DEB", "OBJECT_ID": "1999-025CKU", "EPOCH": "2025-12-10T03:58:03.016416", "MEAN_MOTION": 14.63735073, "ECCENTRICITY": 0.0175148, "INCLINATION": 99.0702, "RA_OF_ASC_NODE": 302.1839, "ARG_OF_PERICENTER": 334.6448, "MEAN_ANOMALY": 38.1514, "EPHEMERIS_TYPE": 0, "CLASSIFICATION_TYPE": "U", "NORAD_CAT_ID": 31893, "ELEMENT_SET_NO": 999, "REV_AT_EPOCH": 98367, "BSTAR": 0.00066013883, "MEAN_MOTION_DOT": 4.232e-05, "MEAN_MOTION_DDOT": 0}, "tle": {"line1": "1 31893U 99025CKU 25344.16531269  .00004232  00000+0  66014-3 0  9990", "line2": "2 31893  99.0702 302.1839 0175148 334.6448  38.1514 14.63735073983671"}}, "geometry": {"type": "Point", "coordinates": [100.94149765296423, -66.67308576389124]}}, {"type": "Feature", "properties": {"norad_id": 31895, "name": "FENGYUN 1C DEB", "group": "fengyun-1c-debris", "lat": 71.62354418022431, "lon": -15.23639075290498, "alt_km": 1129.9220719312461, "timestamp": "2025-12-10T14:53:37.375975+00:00", "meta": {"OBJECT_NAME": "FENGYUN 1C DEB", "OBJECT_ID": "1999-025CKW", "EPOCH": "2025-12-04T08:23:00.168864", "MEAN_MOTION": 13.75460226, "ECCENTRICITY": 0.02263483, "INCLINATION": 99.1028, "RA_OF_ASC_NODE": 7.6273, "ARG_OF_PERICENTER": 251.6022, "MEAN_ANOMALY": 106.0398, "EPHEMERIS_TYPE": 0, "CLASSIFICATION_TYPE": "U", "NORAD_CAT_ID": 31895, "ELEMENT_SET_NO": 999, "REV_AT_EPOCH": 61781, "BSTAR": 0.0039968239, "MEAN_MOTION_DOT": 4.593e-05, "MEAN_MOTION_DDOT": 0}, "tle": {"line1": "1 31895U 99025CKW 25338.34930751  .00004593  00000+0  39968-2 0  9991", "line2": "2 31895  99.1028   7.6273 0226348 251.6022 106.0398 13.75460226617811"}}, "geometry": {"type": "Point", "coordinates": [-15.23639075290498, 71.62354418022431]}}]}